POLYGON ((-3.6584132 40.3281993, -3.660653 40.3281173, -3.6635389 40.3295062, -3.6676036 40.3262756, -3.6704522 40.325079, -3.6786042 40.3269054, -3.6847999 40.3226346, -3.6889851 40.3221323, -3.6930191 40.3201949, -3.6961688 40.3222778, -3.7033035 40.3222046, -3.7126029 40.3238633, -3.7148181 40.3285525, -3.7251721 40.3346954, -3.7208913 40.3655479, -3.7577072 40.3572607, -3.7718552 40.3594954, -3.7736057 40.3606076, -3.7804983 40.3618947, -3.7878994 40.3587513, -3.7953966 40.3619014, -3.8028103 40.3633817, -3.8069304 40.3664529, -3.8105153 40.3637165, -3.8132895 40.3698328, -3.8227776 40.3805346, -3.834162 40.3960582, -3.8206626 40.3966177, -3.8108622 40.3928047, -3.8042572 40.3920568, -3.7964659 40.3922649, -3.7937887 40.3936341, -3.7885871 40.3939729, -3.7893944 40.3924188, -3.7814847 40.3941828, -3.7796751 40.3968453, -3.7781135 40.3976555, -3.7776503 40.3991361, -3.7745596 40.4003063, -3.7743427 40.4021083, -3.778371 40.407628, -3.7813952 40.4175676, -3.7791186 40.424274, -3.7707828 40.4294273, -3.7708286 40.4440573, -3.7761955 40.4434524, -3.784715 40.4443517, -3.7901068 40.4423712, -3.788822 40.4457534, -3.7900678 40.4457965, -3.7900638 40.4479738, -3.7910069 40.4477226, -3.7934395 40.4532335, -3.7930489 40.4539115, -3.7955966 40.456399, -3.7958167 40.4579451, -3.7999694 40.4597804, -3.8043629 40.463572, -3.8114215 40.4648066, -3.8129213 40.4636383, -3.8152421 40.4635655, -3.8249519 40.464731, -3.8290407 40.4663143, -3.8343462 40.4644591, -3.8383521 40.4676436, -3.8381172 40.4709209, -3.8361762 40.4748125, -3.8374829 40.4755327, -3.8366645 40.4808616, -3.8342094 40.4840811, -3.8331637 40.4878466, -3.8344314 40.4940779, -3.839401 40.499383, -3.8370933 40.5058845, -3.8528752 40.5103295, -3.8540092 40.5119932, -3.853365 40.5145764, -3.8512914 40.5176518, -3.8543786 40.5213591, -3.8536925 40.524414, -3.8576962 40.5278565, -3.8581105 40.5301132, -3.8629446 40.5346298, -3.8656577 40.5433947, -3.8694407 40.5474254, -3.8690622 40.5482039, -3.8727933 40.5534058, -3.8738241 40.5575738, -3.8754271 40.5588059, -3.8820895 40.5596411, -3.8849854 40.5610271, -3.8838139 40.5638375, -3.8870605 40.5664574, -3.8889539 40.5708516, -3.8883959 40.5722256, -3.8857617 40.5741126, -3.8837329 40.5790986, -3.8836855 40.5852714, -3.8768501 40.5886153, -3.8761715 40.5899802, -3.8739154 40.5911445, -3.8687519 40.5920347, -3.8659706 40.5917814, -3.863538 40.5895024, -3.859929 40.5881795, -3.8549372 40.587998, -3.850281 40.5904658, -3.8434222 40.5923886, -3.8416397 40.5926593, -3.837691 40.5913638, -3.8333338 40.5935208, -3.8282019 40.5945741, -3.8227391 40.5943928, -3.8144362 40.5954184, -3.8060053 40.5998719, -3.8101036 40.6065709, -3.8127852 40.6081379, -3.8094153 40.609872, -3.8082273 40.6091654, -3.8061981 40.6095122, -3.8061264 40.6079069, -3.8005299 40.6059105, -3.8003092 40.6048302, -3.8033279 40.598866, -3.7991035 40.598489, -3.7953023 40.5999115, -3.7899011 40.5989863, -3.7850339 40.6004708, -3.7834874 40.6017634, -3.7816281 40.6008026, -3.7782572 40.6017278, -3.7681694 40.5996666, -3.7529724 40.594777, -3.7501453 40.5924316, -3.7458199 40.5922083, -3.7408152 40.5906486, -3.7372528 40.586071, -3.7298291 40.5850877, -3.7206856 40.5822087, -3.7108373 40.583122, -3.7046138 40.5851826, -3.6965813 40.5899969, -3.6859709 40.6075103, -3.6794697 40.6110171, -3.6739453 40.6165087, -3.6667206 40.6199379, -3.6685301 40.6283056, -3.6647242 40.6356156, -3.6611528 40.6404107, -3.6586288 40.6423079, -3.6531062 40.6435644, -3.6487985 40.6420482, -3.6438921 40.6385171, -3.6391303 40.6389399, -3.6367734 40.6373223, -3.6333137 40.6316117, -3.6301761 40.628665, -3.6284697 40.618152, -3.6230731 40.6162804, -3.6209991 40.6131655, -3.6177287 40.6110389, -3.6157394 40.6016533, -3.6053167 40.5966273, -3.6021639 40.5919808, -3.602084 40.5906533, -3.6051586 40.5882589, -3.6072337 40.585122, -3.6110521 40.5827055, -3.6162815 40.580858, -3.6254996 40.5734303, -3.6313392 40.5750382, -3.6369757 40.5751334, -3.6448172 40.5772341, -3.6497583 40.5774768, -3.6513436 40.5789093, -3.6556588 40.5888757, -3.6591834 40.5915943, -3.6630328 40.5922784, -3.6672709 40.5920774, -3.6858924 40.5828449, -3.6887067 40.5825144, -3.6924629 40.580238, -3.7009167 40.5784659, -3.6948463 40.573717, -3.6917935 40.5697841, -3.690705 40.569081, -3.689256 40.5705457, -3.6895237 40.5686762, -3.6820663 40.5531171, -3.6830616 40.5522126, -3.678561 40.5467804, -3.6781392 40.5436027, -3.6767933 40.5414772, -3.6740245 40.5379541, -3.6718847 40.5370622, -3.6693614 40.5342974, -3.6709644 40.5320963, -3.6771913 40.5269828, -3.6721287 40.5243468, -3.6681811 40.5251039, -3.6658697 40.5247055, -3.6660546 40.5214751, -3.6639799 40.5198693, -3.6625986 40.519938, -3.6577949 40.5113768, -3.6558629 40.5131585, -3.6523689 40.5111881, -3.6477768 40.5103395, -3.6448476 40.5078909, -3.6332908 40.5075405, -3.6253516 40.509432, -3.6227523 40.5090234, -3.6209096 40.5101262, -3.6150989 40.5109811, -3.6063498 40.5057011, -3.605764 40.5040344, -3.6022895 40.5012569, -3.6002224 40.5018062, -3.5933344 40.5014052, -3.582984 40.5084823, -3.5779324 40.510357, -3.5759357 40.5103674, -3.5721062 40.5123682, -3.5649426 40.5120506, -3.5616263 40.5106865, -3.5542579 40.5113309, -3.5551284 40.5085721, -3.5552156 40.5031569, -3.5534056 40.5024597, -3.5531706 40.4997283, -3.5418534 40.4941758, -3.5409536 40.48853, -3.5369427 40.4864279, -3.5372826 40.4848107, -3.5347921 40.4802276, -3.5340093 40.4722492, -3.5265991 40.4702788, -3.5253123 40.4690334, -3.5250873 40.4677375, -3.528924 40.4634776, -3.5296562 40.4610418, -3.5293124 40.458706, -3.5268126 40.4559246, -3.528789 40.4546745, -3.5321918 40.4546475, -3.5345645 40.4525471, -3.5320115 40.4469332, -3.5354915 40.4464812, -3.5349878 40.4449547, -3.5355779 40.4447056, -3.5409725 40.4445887, -3.541612 40.443654, -3.5519567 40.4416335, -3.5599613 40.4381715, -3.5652917 40.4377534, -3.5685469 40.4362065, -3.5737954 40.4376687, -3.5759427 40.4367378, -3.5751023 40.4340949, -3.5791282 40.4331366, -3.5763172 40.4296774, -3.5774816 40.4260143, -3.5752486 40.4255792, -3.5795288 40.4173378, -3.577537 40.4136194, -3.5728834 40.411762, -3.5640323 40.4135356, -3.558829 40.4131546, -3.5533962 40.4116717, -3.5492625 40.4123127, -3.53976 40.4104261, -3.5396553 40.4115945, -3.5382799 40.4114284, -3.5376659 40.4124237, -3.5362057 40.4125154, -3.5351716 40.4144134, -3.5302303 40.4147088, -3.5311901 40.4200833, -3.5250587 40.4162839, -3.5209623 40.4121288, -3.5190627 40.4089313, -3.5193223 40.40643, -3.5183264 40.4021529, -3.5197834 40.3979298, -3.5203948 40.3920974, -3.5291492 40.3893862, -3.5320834 40.3914167, -3.533639 40.3916247, -3.5381342 40.3887421, -3.5500284 40.3778922, -3.5587096 40.3659011, -3.5652234 40.3600762, -3.5542511 40.3566543, -3.5570117 40.3550938, -3.5551224 40.3540593, -3.5576838 40.352669, -3.5589293 40.3501325, -3.5607359 40.3491871, -3.5698078 40.3393383, -3.5715478 40.3345984, -3.578762 40.3284214, -3.582501 40.3262947, -3.583893 40.3237227, -3.5850735 40.3183478, -3.5838091 40.3158014, -3.5792622 40.3158624, -3.5777969 40.3146492, -3.5761354 40.3148605, -3.5771677 40.3139259, -3.5986952 40.3119774, -3.6117377 40.314301, -3.6154788 40.3171617, -3.6188643 40.3185662, -3.6244142 40.3197797, -3.6249253 40.318805, -3.6310204 40.3210784, -3.6491347 40.3334125, -3.6499375 40.3323024, -3.6523218 40.3309909, -3.6529522 40.3314058, -3.6584132 40.3281993))
